[{"OBJECT_NAME":"IRIDIUM 149","OBJECT_ID":"2018-030B","EPOCH":"2026-03-09T19:36:11.240064","MEAN_MOTION":14.34219768,"ECCENTRICITY":0.00021302,"INCLINATION":86.4008,"RA_OF_ASC_NODE":331.9304,"ARG_OF_PERICENTER":82.8556,"MEAN_ANOMALY":277.2882,"EPHEMERIS_TYPE":0,"CLASSIFICATION_TYPE":"U","NORAD_CAT_ID":43250,"ELEMENT_SET_NO":999,"REV_AT_EPOCH":41591,"BSTAR":0.00012927416,"MEAN_MOTION_DOT":3.82e-6,"MEAN_MOTION_DDOT":0},{"OBJECT_NAME":"FENGYUN 1C DEB","OBJECT_ID":"1999-025CMZ","EPOCH":"2026-03-07T03:17:31.912224","MEAN_MOTION":14.28932405,"ECCENTRICITY":0.00268086,"INCLINATION":99.3828,"RA_OF_ASC_NODE":137.9375,"ARG_OF_PERICENTER":142.921,"MEAN_ANOMALY":247.7066,"EPHEMERIS_TYPE":0,"CLASSIFICATION_TYPE":"U","NORAD_CAT_ID":31948,"ELEMENT_SET_NO":999,"REV_AT_EPOCH":96233,"BSTAR":0.0014556189,"MEAN_MOTION_DOT":3.643e-5,"MEAN_MOTION_DDOT":0}]
